{
  "norad_id": 32955,
  "name": "COSMOS 2438",
  "history": [
    {
      "epoch": "2026-03-28T23:18:23.669856Z",
      "apogee_km": 1509.780558768467,
      "perigee_km": 1474.940542081902,
      "latitude_deg": -2.9454442068598087e-05,
      "longitude_deg": -133.24133123373744,
      "height_km": 1503.030230136526,
      "semi_major_axis_km": 7870.497550425184,
      "eccentricity": 0.00221333,
      "inclination_deg": 82.5022,
      "raan_deg": 42.7412,
      "arg_perigee_deg": 117.4397,
      "mean_anomaly_deg": 242.8937,
      "mean_motion_rev_day": 12.4336741
    },
    {
      "epoch": "2026-03-29T05:06:00.470880Z",
      "apogee_km": 1509.784841944098,
      "perigee_km": 1474.9358537872176,
      "latitude_deg": 6.093009625388195e-05,
      "longitude_deg": 139.46721021688526,
      "height_km": 1502.9039140616205,
      "semi_major_axis_km": 7870.4973478656575,
      "eccentricity": 0.0022139,
      "inclination_deg": 82.5022,
      "raan_deg": 42.591,
      "arg_perigee_deg": 116.9675,
      "mean_anomaly_deg": 243.367,
      "mean_motion_rev_day": 12.43367458
    },
    {
      "epoch": "2026-03-30T04:16:27.701760Z",
      "apogee_km": 1509.8134164164003,
      "perigee_km": 1474.9093302303854,
      "latitude_deg": -1.2948238024701136e-05,
      "longitude_deg": 150.30090730635578,
      "height_km": 1502.3600554660322,
      "semi_major_axis_km": 7870.498373323393,
      "eccentricity": 0.0022174,
      "inclination_deg": 82.5022,
      "raan_deg": 41.9899,
      "arg_perigee_deg": 114.9388,
      "mean_anomaly_deg": 245.3999,
      "mean_motion_rev_day": 12.43367215
    },
    {
      "epoch": "2026-03-30T06:12:19.952064Z",
      "apogee_km": 1509.819595707566,
      "perigee_km": 1474.9010325039117,
      "latitude_deg": 1.583415606857058e-05,
      "longitude_deg": 121.20389079828894,
      "height_km": 1502.320850685714,
      "semi_major_axis_km": 7870.497314105738,
      "eccentricity": 0.00221832,
      "inclination_deg": 82.5022,
      "raan_deg": 41.9399,
      "arg_perigee_deg": 114.7904,
      "mean_anomaly_deg": 245.5487,
      "mean_motion_rev_day": 12.43367466
    },
    {
      "epoch": "2026-03-30T13:55:49.024992Z",
      "apogee_km": 1509.826078197024,
      "perigee_km": 1474.8949213735768,
      "latitude_deg": 4.416355769643943e-06,
      "longitude_deg": 4.815208573991053,
      "height_km": 1502.1210485182464,
      "semi_major_axis_km": 7870.4974997853005,
      "eccentricity": 0.00221912,
      "inclination_deg": 82.5023,
      "raan_deg": 41.7396,
      "arg_perigee_deg": 114.0625,
      "mean_anomaly_deg": 246.278,
      "mean_motion_rev_day": 12.43367422
    },
    {
      "epoch": "2026-03-30T21:39:18.070272Z",
      "apogee_km": 1509.8239644441855,
      "perigee_km": 1474.8925028585745,
      "latitude_deg": 4.14681740219593e-05,
      "longitude_deg": -111.57355178688618,
      "height_km": 1501.935909029958,
      "semi_major_axis_km": 7870.49523365138,
      "eccentricity": 0.00221914,
      "inclination_deg": 82.5023,
      "raan_deg": 41.5391,
      "arg_perigee_deg": 113.4088,
      "mean_anomaly_deg": 246.9329,
      "mean_motion_rev_day": 12.43367959
    },
    {
      "epoch": "2026-03-31T20:49:45.280416Z",
      "apogee_km": 1509.8355311067799,
      "perigee_km": 1474.8826579509778,
      "latitude_deg": -3.994719526676503e-06,
      "longitude_deg": -100.7395636137938,
      "height_km": 1501.3686452953807,
      "semi_major_axis_km": 7870.4960945288785,
      "eccentricity": 0.0022205,
      "inclination_deg": 82.5028,
      "raan_deg": 40.9382,
      "arg_perigee_deg": 111.3845,
      "mean_anomaly_deg": 248.9607,
      "mean_motion_rev_day": 12.43367755
    },
    {
      "epoch": "2026-04-01T20:00:12.477600Z",
      "apogee_km": 1509.8619016911953,
      "perigee_km": 1474.8555108887604,
      "latitude_deg": 4.0300398334217496e-05,
      "longitude_deg": -89.90550965629116,
      "height_km": 1500.8004108613839,
      "semi_major_axis_km": 7870.4957062899775,
      "eccentricity": 0.0022239,
      "inclination_deg": 82.5032,
      "raan_deg": 40.3373,
      "arg_perigee_deg": 109.3728,
      "mean_anomaly_deg": 250.9759,
      "mean_motion_rev_day": 12.43367847
    }
  ]
}